[{"OBJECT_NAME":"STARLINK-3198","OBJECT_ID":"2021-115AR","EPOCH":"2026-03-09T13:34:34.817664","MEAN_MOTION":15.0879053,"ECCENTRICITY":0.0001285,"INCLINATION":53.2172,"RA_OF_ASC_NODE":139.6726,"ARG_OF_PERICENTER":113.3539,"MEAN_ANOMALY":246.7588,"EPHEMERIS_TYPE":0,"CLASSIFICATION_TYPE":"U","NORAD_CAT_ID":49763,"ELEMENT_SET_NO":999,"REV_AT_EPOCH":23566,"BSTAR":0.00025397,"MEAN_MOTION_DOT":3.751e-5,"MEAN_MOTION_DDOT":0},{"OBJECT_NAME":"SITRO-AIS 28","OBJECT_ID":"2024-039U","EPOCH":"2026-03-09T22:53:08.846304","MEAN_MOTION":14.92876764,"ECCENTRICITY":0.01445021,"INCLINATION":95.3938,"RA_OF_ASC_NODE":167.1162,"ARG_OF_PERICENTER":314.581,"MEAN_ANOMALY":44.3693,"EPHEMERIS_TYPE":0,"CLASSIFICATION_TYPE":"U","NORAD_CAT_ID":59071,"ELEMENT_SET_NO":999,"REV_AT_EPOCH":10993,"BSTAR":0.0004111707,"MEAN_MOTION_DOT":5.19e-5,"MEAN_MOTION_DDOT":0}]
